RADUGA 1 [-]            
1 08513U 75123A   16073.82582584 -.00000068  00000-0  00000+0 0  9998
2 08513  11.2417 317.5492 0007869 172.9664  48.5045  1.00250503157365
RADUGA 2 [-]            
1 09416U 76092A   16073.82095508 -.00000047  00000-0  00000+0 0  9999
2 09416  11.8371 319.4583 0028215 283.2696 291.4688  1.00291180 91763
RADUGA 3 [-]            
1 10159U 77071A   16073.92492775  .00000112  00000-0  00000-0 0  9994
2 10159  12.3596 321.7421 0010360 188.7476  34.3885  1.00233608139462
RADUGA 4 [-]            
1 10987U 78073A   16072.98937122 -.00000151  00000-0  00000+0 0  9994
2 10987  12.8567 324.5934 0011426 276.6943   2.3357  1.00351774 82005
RADUGA 5 [-]            
1 11343U 79035A   16072.48854035 -.00000208  00000-0  00000-0 0  9990
2 11343  13.2019 326.8196 0002463 142.6786 320.9458  1.00286043 91762
RADUGA 6 [-]            
1 11708U 80016A   16074.71288463 -.00000302  00000-0  00000+0 0  9994
2 11708  13.4242 329.2181 0004713 209.2904 344.7657  1.00330497 84591
RADUGA 7 [-]            
1 12003U 80081A   16075.25019976  .00000043  00000-0  00000+0 0  9997
2 12003  13.5105 330.8187 0012217 219.7766 300.2773  1.00173807 85859
RADUGA 8 [-]            
1 12351U 81027A   16075.49267977 -.00000144  00000-0  00000+0 0  9999
2 12351  13.8010 331.6426 0086740 163.4298 109.9931  1.00412938 84934
RADUGA 9 [-]            
1 12618U 81069A   16072.43638242 -.00000386  00000-0  00000-0 0  9998
2 12618  13.8850 333.7685 0000793 203.5524 264.0892  1.00286214  9756
RADUGA 10 [-]           
1 12897U 81102A   16075.02319095 -.00000141  00000-0  00000+0 0  9993
2 12897  13.9190 334.4619 0005003 162.2118 120.8575  1.00296795 79835
RADUGA 11 [-]           
1 13669U 82113A   16073.15356815 -.00000076  00000-0  00000-0 0  9995
2 13669  15.2271 345.1498 0042881 193.5467 315.3062  0.97707479 84919
RADUGA 12 [-]           
1 13974U 83028A   16074.79083022 -.00000037  00000-0  00000+0 0  9994
2 13974  14.4686 342.7030 0001907 245.8512 294.3489  1.00266554131809
RADUGA 13 [-]           
1 14307U 83088A   16074.14304845 -.00000192  00000-0  00000+0 0  9991
2 14307  15.3280 346.8923 0015454 329.2439 274.8493  0.98175096 82149
RADUGA 14 [-]           
1 14725U 84016A   16074.53190676 -.00000211  00000-0  00000+0 0  9997
2 14725  14.4262 345.7087 0001680 153.1132 308.8753  1.00291054 80515
RADUGA 15 [-]           
1 15057U 84063A   16073.97898508  .00000090  00000-0  00000+0 0  9998
2 15057  14.4732 346.6942 0003192 154.5261  66.3890  1.00355055103510
RADUGA 16 [-]           
1 15946U 85070A   16073.49018792 -.00000314  00000-0  00000+0 0  9990
2 15946  14.5850 350.8353 0003649 215.6712  75.4504  1.00356871 84641
RADUGA 17 [-]           
1 16250U 85107A   16075.32796414 -.00000068  00000-0  00000+0 0  9994
2 16250  14.6042 351.9665 0011296 141.5204 329.7721  1.00188588114280
RADUGA 18 [-]           
1 16497U 86007A   16073.13216931 -.00000195  00000-0  00000+0 0  9996
2 16497  15.2387 354.1932 0071959 104.5838 125.0748  0.98814352108873
RADUGA 19 [-]           
1 17046U 86082A   16073.96584564 -.00000012  00000-0  00000-0 0  9990
2 17046  15.3461 357.6029 0009348 104.5371 122.8363  0.98458456106019
RADUGA 20 [-]           
1 17611U 87028A   16074.15251822 -.00000135  00000-0  00000+0 0  9994
2 17611  17.0845   1.1140 0024484  81.3625 174.9936  0.95962532102336
RADUGA 21 [-]           
1 18631U 87100A   16074.44975317  .00000083  00000-0  00000+0 0  9993
2 18631  15.2579 359.6657 0002658 185.1694   0.1201  1.00230406103505
RADUGA 22 [-]           
1 19596U 88095A   16073.88300513 -.00000369  00000-0  00000+0 0  9993
2 19596  14.8806   3.1830 0004116 118.1888 139.0346  1.00238190 84126
RADUGA 23 [-]           
1 19928U 89030A   16074.79652117 -.00000389  00000-0  00000+0 0  9995
2 19928  14.8616   4.8328 0019101 108.4394 100.6342  1.00233782 97270
RADUGA-1 1 [-]          
1 20083U 89048A   16075.05729289 -.00000197  00000-0  00000+0 0  9990
2 20083  15.3709   7.3415 0016774  57.3754 134.9697  0.98710012 94286
RADUGA 24 [-]           
1 20367U 89098A   16072.96755053  .00000087  00000-0  00000+0 0  9992
2 20367  15.2041   7.5058 0004116 197.5990   0.5690  1.00249589 95440
RADUGA 25 [-]           
1 20499U 90016A   16074.52550612  .00000058  00000-0  00000+0 0  9996
2 20499  14.9251   7.8673 0002396 187.1564 357.6766  1.00247026 95377
RADUGA 26 [-]           
1 21016U 90112A   16074.72064969 -.00000048  00000-0  00000+0 0  9996
2 21016  14.9274  10.9672 0001801   4.1070 122.4093  1.00317143 92671
RADUGA-1 2 [-]          
1 21038U 90116A   16074.97544421  .00000066  00000-0  00000+0 0  9996
2 21038  14.9562  11.0871 0002860  46.8561 156.0587  1.00288679 92348
RADUGA 27 [-]           
1 21132U 91014A   16074.77648519 -.00000016  00000-0  00000+0 0  9996
2 21132  15.4693  11.4112 0000692 207.4074 298.2093  1.00169449 91737
RADUGA 28 [-]           
1 21821U 91087A   16073.72417287  .00000108  00000-0  00000-0 0  9993
2 21821  14.9082  14.4269 0003271  88.5816   3.0260  1.00303657 88748
RADUGA 29 [-]           
1 22557U 93013A   16075.04818716  .00000089  00000-0  00000+0 0  9997
2 22557  14.6979  18.5351 0001052  75.3947 118.7699  1.00323875 84120
RADUGA 30 [-]           
1 22836U 93062A   16073.90099443 -.00000168  00000-0  00000-0 0  9992
2 22836  14.5509  20.3170 0005373 220.5738 335.1065  1.00263699  8428
RADUGA-1 3 [-]          
1 22981U 94008A   16073.90130388 -.00000269  00000-0  00000-0 0  9990
2 22981  14.5102  21.5329 0001712 186.3622  20.3185  1.00229092 80909
RADUGA 31 [-]           
1 23010U 94012A   16074.53190676 -.00000229  00000-0  00000+0 0  9990
2 23010  14.4833  21.4879 0000413 126.1445 300.9470  1.00336783 80779
RADUGA 32 [-]           
1 23448U 94087A   16073.90099443 -.00000165  00000-0  00000-0 0  9997
2 23448  14.2032  24.0157 0008516 182.3998   9.3178  1.00266350 95302
RADUGA-1 4 [-]          
1 25642U 99010A   16073.89096751 -.00000356  00000-0  00000-0 0  9995
2 25642  13.5966  36.4990 0005473 193.0870   5.9231  1.00328126 62370
RADUGA-1 5 [-]          
1 26477U 00049A   16073.79764679  .00000045  00000-0  00000+0 0  9999
2 26477  11.2379  38.1534 0000903 237.5648 237.5641  1.00322358 56915
RADUGA-1 6 [-]          
1 26936U 01045A   16073.99901366 -.00000103  00000-0  00000+0 0  9990
2 26936  10.8147  43.2744 0016769 118.5353  47.4679  0.97744309 51947
RADUGA-1 7 [-]          
1 28194U 04010A   16073.99811376 -.00000292  00000-0  00000+0 0  9993
2 28194   9.0129  50.7053 0003720 157.9299  54.4062  1.00373588 43824
RADUGA-1M 1 [-]         
1 32373U 07058A   16073.61998338 -.00000043  00000-0  00000-0 0  9990
2 32373   2.1627  75.2778 0002345 231.6585 281.1286  0.99399954 15144
RADUGA-1 8 [+]          
1 34264U 09010A   16074.52344093  .00000029  00000-0  00000+0 0  9997
2 34264   4.8455  72.9526 0009496 292.6817 188.1479  0.99828536 25769
RADUGA-1M 2 [+]         
1 36358U 10002A   16073.67621804 -.00000210  00000-0  00000+0 0  9992
2 36358   0.0240 242.5777 0002632 160.3411  97.1987  1.00270756 22436
RADUGA-1M 3 [+]         
1 39375U 13062A   16074.95531409 -.00000068  00000-0  00000+0 0  9997
2 39375   0.0089 190.3832 0001316 185.1452 211.3562  1.00272360  8569
